[{"OBJECT_NAME":"STARLINK-31381","OBJECT_ID":"2024-068Q","EPOCH":"2026-03-09T05:53:36.970656","MEAN_MOTION":15.27584318,"ECCENTRICITY":0.00013478,"INCLINATION":43.0026,"RA_OF_ASC_NODE":33.6651,"ARG_OF_PERICENTER":260.9479,"MEAN_ANOMALY":99.122,"EPHEMERIS_TYPE":0,"CLASSIFICATION_TYPE":"U","NORAD_CAT_ID":59469,"ELEMENT_SET_NO":999,"REV_AT_EPOCH":10849,"BSTAR":1.5253567e-5,"MEAN_MOTION_DOT":1.58e-6,"MEAN_MOTION_DDOT":0},{"OBJECT_NAME":"STARLINK-36554","OBJECT_ID":"2026-012K","EPOCH":"2026-03-08T17:06:15.871680","MEAN_MOTION":15.27591469,"ECCENTRICITY":6.955e-5,"INCLINATION":42.9934,"RA_OF_ASC_NODE":319.8184,"ARG_OF_PERICENTER":339.2059,"MEAN_ANOMALY":20.8765,"EPHEMERIS_TYPE":0,"CLASSIFICATION_TYPE":"U","NORAD_CAT_ID":67502,"ELEMENT_SET_NO":999,"REV_AT_EPOCH":761,"BSTAR":0.0011969118,"MEAN_MOTION_DOT":0.00032833,"MEAN_MOTION_DDOT":0}]
